{"type":"FeatureCollection","features":[{"type":"Feature","properties":{"CFSAUID":"M1N","landAreaKm2":5.9616},"geometry":{"type":"Polygon","coordinates":[[[-79.243915,43.700633],[-79.245319,43.704237],[-79.246727,43.704889],[-79.246761,43.707678],[-79.251249,43.718833],[-79.254134,43.718167],[-79.265575,43.700881],[-79.268297,43.697189],[-79.271994,43.694152],[-79.276231,43.692061],[-79.280238,43.690851],[-79.287519,43.689213],[-79.283147,43.678629],[-79.279823,43.671071],[-79.277012,43.673225],[-79.268003,43.683161],[-79.263573,43.686832],[-79.257634,43.693507],[-79.255678,43.695019],[-79.243831,43.700426],[-79.243897,43.700588],[-79.243915,43.700633]]]}},{"type":"Feature","properties":{"CFSAUID":"M4E","landAreaKm2":3.769},"geometry":{"type":"Polygon","coordinates":[[[-79.279823,43.671071],[-79.283147,43.678629],[-79.287519,43.689213],[-79.299604,43.686436],[-79.311271,43.682078],[-79.307917,43.67392],[-79.304879,43.676522],[-79.301174,43.678124],[-79.298004,43.67046],[-79.300777,43.66979],[-79.299707,43.666802],[-79.304776,43.665641],[-79.303879,43.664198],[-79.300779,43.665387],[-79.297843,43.665217],[-79.295118,43.665953],[-79.293529,43.66729],[-79.286862,43.669034],[-79.285659,43.669761],[-79.279823,43.671071]]]}},{"type":"Feature","properties":{"CFSAUID":"M4J","landAreaKm2":5.325},"geometry":{"type":"Polygon","coordinates":[[[-79.327042,43.701281],[-79.331558,43.701663],[-79.332342,43.703213],[-79.335371,43.703177],[-79.339251,43.701219],[-79.341823,43.699281],[-79.345028,43.698291],[-79.348255,43.699921],[-79.350562,43.69942],[-79.349255,43.697198],[-79.351014,43.695097],[-79.345147,43.67967],[-79.341682,43.671264],[-79.337065,43.672682],[-79.336742,43.671921],[-79.333427,43.673394],[-79.321421,43.678081],[-79.325585,43.688046],[-79.329582,43.698261],[-79.327042,43.701281]]]}},{"type":"Feature","properties":{"CFSAUID":"M4K","landAreaKm2":4.3905},"geometry":{"type":"Polygon","coordinates":[[[-79.336742,43.671921],[-79.337065,43.672682],[-79.341682,43.671264],[-79.345147,43.67967],[-79.351014,43.695097],[-79.349255,43.697198],[-79.350562,43.69942],[-79.354586,43.698272],[-79.356722,43.695544],[-79.35984,43.695393],[-79.361826,43.694094],[-79.359904,43.691498],[-79.362593,43.687713],[-79.361607,43.685647],[-79.363223,43.68328],[-79.366341,43.681612],[-79.363675,43.678795],[-79.364955,43.676957],[-79.363436,43.675303],[-79.362918,43.673247],[-79.360391,43.671912],[-79.357978,43.669262],[-79.356285,43.664525],[-79.352898,43.666154],[-79.347507,43.667368],[-79.347018,43.666668],[-79.342242,43.667757],[-79.336742,43.671921]]]}},{"type":"Feature","properties":{"CFSAUID":"M4L","landAreaKm2":4.3573},"geometry":{"type":"Polygon","coordinates":[[[-79.304776,43.665641],[-79.299707,43.666802],[-79.300777,43.66979],[-79.298004,43.67046],[-79.301174,43.678124],[-79.304879,43.676522],[-79.307917,43.67392],[-79.311271,43.682078],[-79.321421,43.678081],[-79.333427,43.673394],[-79.336742,43.671921],[-79.334055,43.672098],[-79.33171,43.666725],[-79.330537,43.666987],[-79.328984,43.663525],[-79.330207,43.663236],[-79.328423,43.659229],[-79.307515,43.663929],[-79.304776,43.665641]]]}},{"type":"Feature","properties":{"CFSAUID":"M4M","landAreaKm2":9.1644},"geometry":{"type":"MultiPolygon","coordinates":[[[[-79.339028,43.629297],[-79.336915,43.625075],[-79.338101,43.622325],[-79.341031,43.624083],[-79.342251,43.622858],[-79.339961,43.621423],[-79.3402,43.62011],[-79.342713,43.619851],[-79.344801,43.618295],[-79.343731,43.615534],[-79.344111,43.613155],[-79.33828,43.618264],[-79.333828,43.620199],[-79.331756,43.620384],[-79.329807,43.622403],[-79.333077,43.622314],[-79.331782,43.625649],[-79.335752,43.62617],[-79.339028,43.629297]]],[[[-79.304776,43.665641],[-79.307515,43.663929],[-79.328423,43.659229],[-79.330207,43.663236],[-79.328984,43.663525],[-79.330537,43.666987],[-79.33171,43.666725],[-79.334055,43.672098],[-79.336742,43.671921],[-79.342242,43.667757],[-79.347018,43.666668],[-79.347507,43.667368],[-79.352898,43.666154],[-79.356285,43.664525],[-79.354283,43.657893],[-79.34958,43.65365],[-79.347288,43.650593],[-79.354517,43.647559],[-79.353983,43.645789],[-79.35811,43.644017],[-79.354059,43.639091],[-79.333698,43.650668],[-79.335035,43.652315],[-79.331479,43.653844],[-79.330049,43.652217],[-79.332993,43.649717],[-79.353331,43.638145],[-79.350717,43.634984],[-79.348092,43.633589],[-79.345725,43.634917],[-79.340522,43.63916],[-79.33731,43.639953],[-79.336888,43.640839],[-79.330429,43.646615],[-79.328333,43.647562],[-79.325897,43.646894],[-79.325365,43.645669],[-79.327358,43.64352],[-79.327498,43.641396],[-79.329888,43.639808],[-79.328827,43.63815],[-79.325297,43.642333],[-79.324308,43.645219],[-79.321664,43.644848],[-79.323002,43.638973],[-79.326542,43.63194],[-79.329443,43.633102],[-79.333291,43.631578],[-79.328699,43.630757],[-79.329986,43.628338],[-79.328398,43.627416],[-79.327097,43.63024],[-79.324146,43.633551],[-79.32305,43.63344],[-79.321967,43.638709],[-79.320491,43.641975],[-79.321233,43.642821],[-79.31967,43.646133],[-79.32011,43.648789],[-79.318215,43.653993],[-79.315974,43.65607],[-79.316698,43.657275],[-79.313095,43.657957],[-79.315996,43.659872],[-79.317074,43.661473],[-79.314826,43.661982],[-79.312613,43.659416],[-79.307808,43.657805],[-79.305006,43.660011],[-79.306822,43.661106],[-79.303879,43.664198],[-79.304776,43.665641]]]]}},{"type":"Feature","properties":{"CFSAUID":"M4N","landAreaKm2":4.8658},"geometry":{"type":"Polygon","coordinates":[[[-79.381897,43.736401],[-79.383404,43.743982],[-79.385448,43.743696],[-79.384601,43.741946],[-79.387184,43.741956],[-79.389481,43.742906],[-79.394301,43.74193],[-79.394438,43.739625],[-79.397008,43.738673],[-79.403949,43.738238],[-79.405125,43.736976],[-79.406714,43.744143],[-79.415219,43.741277],[-79.413436,43.739649],[-79.411319,43.740817],[-79.407934,43.737826],[-79.41085,43.736012],[-79.410111,43.734849],[-79.404927,43.736001],[-79.402184,43.725096],[-79.405596,43.724378],[-79.403173,43.723984],[-79.401588,43.721963],[-79.404642,43.72196],[-79.403523,43.717794],[-79.40084,43.718333],[-79.400464,43.716599],[-79.388432,43.719041],[-79.378927,43.72097],[-79.37978,43.725008],[-79.381888,43.728039],[-79.381436,43.730262],[-79.381095,43.731995],[-79.381897,43.736401]]]}},{"type":"Feature","properties":{"CFSAUID":"M4S","landAreaKm2":3.079},"geometry":{"type":"Polygon","coordinates":[[[-79.371726,43.696744],[-79.377146,43.711031],[-79.379636,43.710525],[-79.378706,43.708207],[-79.381351,43.707677],[-79.382232,43.710012],[-79.398356,43.706728],[-79.396096,43.695654],[-79.395333,43.692087],[-79.393288,43.692431],[-79.392052,43.690969],[-79.388643,43.691889],[-79.388779,43.693134],[-79.380787,43.6947],[-79.371726,43.696744]]]}},{"type":"Feature","properties":{"CFSAUID":"M4W","landAreaKm2":4.4645},"geometry":{"type":"Polygon","coordinates":[[[-79.350562,43.69942],[-79.35283,43.701911],[-79.358877,43.702076],[-79.366829,43.694454],[-79.371726,43.696744],[-79.370792,43.694264],[-79.373787,43.69365],[-79.37723,43.693723],[-79.373814,43.692537],[-79.370846,43.690691],[-79.374788,43.68718],[-79.377618,43.685983],[-79.383874,43.684445],[-79.3912,43.681111],[-79.386775,43.670217],[-79.376843,43.672354],[-79.370685,43.672003],[-79.367361,43.674362],[-79.363436,43.675303],[-79.364955,43.676957],[-79.363675,43.678795],[-79.366341,43.681612],[-79.363223,43.68328],[-79.361607,43.685647],[-79.362593,43.687713],[-79.359904,43.691498],[-79.361826,43.694094],[-79.35984,43.695393],[-79.356722,43.695544],[-79.354586,43.698272],[-79.350562,43.69942]]]}},{"type":"Feature","properties":{"CFSAUID":"M4X","landAreaKm2":1.1465},"geometry":{"type":"Polygon","coordinates":[[[-79.357978,43.669262],[-79.360391,43.671912],[-79.362918,43.673247],[-79.363436,43.675303],[-79.367361,43.674362],[-79.370685,43.672003],[-79.376843,43.672354],[-79.374666,43.667092],[-79.375836,43.666478],[-79.373047,43.663179],[-79.363226,43.665533],[-79.363767,43.666927],[-79.359756,43.66792],[-79.357978,43.669262]]]}},{"type":"Feature","properties":{"CFSAUID":"M4Y","landAreaKm2":1.0366},"geometry":{"type":"Polygon","coordinates":[[[-79.373047,43.663179],[-79.375836,43.666478],[-79.374666,43.667092],[-79.376843,43.672354],[-79.386775,43.670217],[-79.389494,43.669661],[-79.385842,43.660809],[-79.383093,43.661368],[-79.376702,43.662412],[-79.373047,43.663179]]]}},{"type":"Feature","properties":{"CFSAUID":"M5A","landAreaKm2":3.7157},"geometry":{"type":"Polygon","coordinates":[[[-79.354517,43.647559],[-79.347288,43.650593],[-79.34958,43.65365],[-79.354283,43.657893],[-79.356285,43.664525],[-79.357978,43.669262],[-79.359756,43.66792],[-79.363767,43.666927],[-79.363226,43.665533],[-79.373047,43.663179],[-79.376702,43.662412],[-79.37484,43.660647],[-79.373561,43.657487],[-79.374552,43.65706],[-79.373241,43.653719],[-79.371447,43.649443],[-79.369445,43.644607],[-79.368498,43.643786],[-79.367448,43.6426],[-79.354517,43.647559]]]}},{"type":"Feature","properties":{"CFSAUID":"M5N","landAreaKm2":2.754},"geometry":{"type":"Polygon","coordinates":[[[-79.42555,43.700986],[-79.42313,43.701499],[-79.419838,43.699743],[-79.419099,43.702344],[-79.408503,43.704592],[-79.409687,43.705824],[-79.411677,43.711758],[-79.412202,43.715862],[-79.414375,43.717711],[-79.413792,43.718845],[-79.414198,43.722561],[-79.429804,43.719252],[-79.426136,43.704269],[-79.42555,43.700986]]]}}]}